COSMOS 2251 DEB         
1 33901U 93036DE  26061.54023822  .00089812  00000+0  32368-2 0  9999
2 33901  73.7708 238.9032 0028936 359.4714   0.6450 15.27723743907279
COSMOS 2251 DEB         
1 33905U 93036DJ  26061.65044159  .00001843  00000+0  63531-3 0  9996
2 33905  73.8866 168.7043 0056795  38.4362  25.8720 14.35719232888349
COSMOS 2251 DEB         
1 33906U 93036DK  26061.76721375  .00010592  00000+0  22588-2 0  9998
2 33906  74.0304 169.2277 0034022 188.7955 297.1796 14.58626651891743
COSMOS 2251 DEB         
1 33907U 93036DL  26060.96460876  .00004467  00000+0  15709-2 0  9997
2 33907  74.0675 249.6136 0112767 286.7154 226.8954 14.31669229877136
COSMOS 2251 DEB         
1 33908U 93036DM  26061.45852435  .00003208  00000+0  15347-2 0  9999
2 33908  73.8363  64.2131 0215023  73.0890 289.3699 14.08089366865956
COSMOS 2251 DEB         
1 33911U 93036DQ  26061.82166556  .00017887  00000+0  25150-2 0  9997
2 33911  74.0923   5.6114 0015982 274.0719 115.3182 14.77256434898263
COSMOS 2251 DEB         
1 33912U 93036DR  26061.39013207  .00004114  00000+0  10136-2 0  9991
2 33912  74.0343  39.6059 0008283 106.5581  45.1660 14.52490943895892
COSMOS 2251 DEB         
1 33913U 93036DS  26061.35226438  .00002612  00000+0  68847-3 0  9994
2 33913  74.0347  34.4340 0045445 119.2418 355.6172 14.48883365896105
COSMOS 2251 DEB         
1 33914U 93036DT  26061.71476302  .00000444  00000+0  37041-3 0  9995
2 33914  74.0877 243.2773 0303458 327.5920 114.3129 13.72106535851787
COSMOS 2251 DEB         
1 33915U 93036DU  26061.58330230  .00001199  00000+0  40138-3 0  9999
2 33915  74.0402 247.7463 0106078 320.0610  95.8404 14.35345554889034
COSMOS 2251 DEB         
1 33916U 93036DV  26061.71110929  .00000501  00000+0  42057-3 0  9994
2 33916  74.0489 269.1898 0323819  63.3232  10.1903 13.68691371849857
COSMOS 2251 DEB         
1 33917U 93036DW  26061.77846519  .00002042  00000+0  16128-2 0  9993
2 33917  74.1100 351.1345 0329298  73.4084 290.2921 13.69639290848293
COSMOS 2251 DEB         
1 33920U 93036DZ  26061.65331212  .00007528  00000+0  15694-2 0  9994
2 33920  74.0613 146.4036 0031879 137.4144 222.9503 14.59787341892805
COSMOS 2251 DEB         
1 33922U 93036EB  26061.26826875  .00001981  00000+0  51883-3 0  9995
2 33922  74.0493 358.6041 0020792  90.3831  38.8867 14.49828711897301
COSMOS 2251 DEB         
1 33924U 93036ED  26061.62439124  .00000772  00000+0  74861-3 0  9992
2 33924  73.9133 141.7891 0401890 162.9731 198.5329 13.50369932838176
COSMOS 2251 DEB         
1 33928U 93036EH  26061.59958361  .00001087  00000+0  29624-3 0  9998
2 33928  73.9227 262.1809 0060862 180.9638 179.1414 14.47601449898004
