[{"OBJECT_NAME":"COSMOS 2251 DEB","OBJECT_ID":"1993-036DE","EPOCH":"2026-03-02T12:57:56.582208","MEAN_MOTION":15.27723743,"ECCENTRICITY":0.0028936,"INCLINATION":73.7708,"RA_OF_ASC_NODE":238.9032,"ARG_OF_PERICENTER":359.4714,"MEAN_ANOMALY":0.645,"EPHEMERIS_TYPE":0,"CLASSIFICATION_TYPE":"U","NORAD_CAT_ID":33901,"ELEMENT_SET_NO":999,"REV_AT_EPOCH":90727,"BSTAR":0.0032368,"MEAN_MOTION_DOT":0.00089812,"MEAN_MOTION_DDOT":0},{"OBJECT_NAME":"COSMOS 2251 DEB","OBJECT_ID":"1993-036DJ","EPOCH":"2026-03-02T15:36:38.153376","MEAN_MOTION":14.35719232,"ECCENTRICITY":0.0056795,"INCLINATION":73.8866,"RA_OF_ASC_NODE":168.7043,"ARG_OF_PERICENTER":38.4362,"MEAN_ANOMALY":25.872,"EPHEMERIS_TYPE":0,"CLASSIFICATION_TYPE":"U","NORAD_CAT_ID":33905,"ELEMENT_SET_NO":999,"REV_AT_EPOCH":88834,"BSTAR":0.00063531,"MEAN_MOTION_DOT":1.843e-5,"MEAN_MOTION_DDOT":0},{"OBJECT_NAME":"COSMOS 2251 DEB","OBJECT_ID":"1993-036DK","EPOCH":"2026-03-02T18:24:47.268000","MEAN_MOTION":14.58626651,"ECCENTRICITY":0.0034022,"INCLINATION":74.0304,"RA_OF_ASC_NODE":169.2277,"ARG_OF_PERICENTER":188.7955,"MEAN_ANOMALY":297.1796,"EPHEMERIS_TYPE":0,"CLASSIFICATION_TYPE":"U","NORAD_CAT_ID":33906,"ELEMENT_SET_NO":999,"REV_AT_EPOCH":89174,"BSTAR":0.0022588,"MEAN_MOTION_DOT":0.00010592,"MEAN_MOTION_DDOT":0},{"OBJECT_NAME":"COSMOS 2251 DEB","OBJECT_ID":"1993-036DL","EPOCH":"2026-03-01T23:09:02.196864","MEAN_MOTION":14.31669229,"ECCENTRICITY":0.0112767,"INCLINATION":74.0675,"RA_OF_ASC_NODE":249.6136,"ARG_OF_PERICENTER":286.7154,"MEAN_ANOMALY":226.8954,"EPHEMERIS_TYPE":0,"CLASSIFICATION_TYPE":"U","NORAD_CAT_ID":33907,"ELEMENT_SET_NO":999,"REV_AT_EPOCH":87713,"BSTAR":0.0015709,"MEAN_MOTION_DOT":4.467e-5,"MEAN_MOTION_DDOT":0},{"OBJECT_NAME":"COSMOS 2251 DEB","OBJECT_ID":"1993-036DM","EPOCH":"2026-03-02T11:00:16.503840","MEAN_MOTION":14.08089366,"ECCENTRICITY":0.02150239,"INCLINATION":73.8363,"RA_OF_ASC_NODE":64.2131,"ARG_OF_PERICENTER":73.089,"MEAN_ANOMALY":289.3699,"EPHEMERIS_TYPE":0,"CLASSIFICATION_TYPE":"U","NORAD_CAT_ID":33908,"ELEMENT_SET_NO":999,"REV_AT_EPOCH":86595,"BSTAR":0.0015347006,"MEAN_MOTION_DOT":3.208e-5,"MEAN_MOTION_DDOT":0},{"OBJECT_NAME":"COSMOS 2251 DEB","OBJECT_ID":"1993-036DQ","EPOCH":"2026-03-02T19:43:11.904384","MEAN_MOTION":14.77256434,"ECCENTRICITY":0.0015982,"INCLINATION":74.0923,"RA_OF_ASC_NODE":5.6114,"ARG_OF_PERICENTER":274.0719,"MEAN_ANOMALY":115.3182,"EPHEMERIS_TYPE":0,"CLASSIFICATION_TYPE":"U","NORAD_CAT_ID":33911,"ELEMENT_SET_NO":999,"REV_AT_EPOCH":89826,"BSTAR":0.002515,"MEAN_MOTION_DOT":0.00017887,"MEAN_MOTION_DDOT":0},{"OBJECT_NAME":"COSMOS 2251 DEB","OBJECT_ID":"1993-036DR","EPOCH":"2026-03-02T09:21:47.410848","MEAN_MOTION":14.52490943,"ECCENTRICITY":0.00082835,"INCLINATION":74.0343,"RA_OF_ASC_NODE":39.6059,"ARG_OF_PERICENTER":106.5581,"MEAN_ANOMALY":45.166,"EPHEMERIS_TYPE":0,"CLASSIFICATION_TYPE":"U","NORAD_CAT_ID":33912,"ELEMENT_SET_NO":999,"REV_AT_EPOCH":89589,"BSTAR":0.0010135692,"MEAN_MOTION_DOT":4.114e-5,"MEAN_MOTION_DDOT":0},{"OBJECT_NAME":"COSMOS 2251 DEB","OBJECT_ID":"1993-036DS","EPOCH":"2026-03-02T08:27:15.642432","MEAN_MOTION":14.48883365,"ECCENTRICITY":0.00454453,"INCLINATION":74.0347,"RA_OF_ASC_NODE":34.434,"ARG_OF_PERICENTER":119.2418,"MEAN_ANOMALY":355.6172,"EPHEMERIS_TYPE":0,"CLASSIFICATION_TYPE":"U","NORAD_CAT_ID":33913,"ELEMENT_SET_NO":999,"REV_AT_EPOCH":89610,"BSTAR":0.00068847369,"MEAN_MOTION_DOT":2.612e-5,"MEAN_MOTION_DDOT":0},{"OBJECT_NAME":"COSMOS 2251 DEB","OBJECT_ID":"1993-036DT","EPOCH":"2026-03-02T17:09:15.524928","MEAN_MOTION":13.72106535,"ECCENTRICITY":0.0303458,"INCLINATION":74.0877,"RA_OF_ASC_NODE":243.2773,"ARG_OF_PERICENTER":327.592,"MEAN_ANOMALY":114.3129,"EPHEMERIS_TYPE":0,"CLASSIFICATION_TYPE":"U","NORAD_CAT_ID":33914,"ELEMENT_SET_NO":999,"REV_AT_EPOCH":85178,"BSTAR":0.00037041,"MEAN_MOTION_DOT":4.44e-6,"MEAN_MOTION_DDOT":0},{"OBJECT_NAME":"COSMOS 2251 DEB","OBJECT_ID":"1993-036DU","EPOCH":"2026-03-02T13:59:57.318720","MEAN_MOTION":14.35345554,"ECCENTRICITY":0.0106078,"INCLINATION":74.0402,"RA_OF_ASC_NODE":247.7463,"ARG_OF_PERICENTER":320.061,"MEAN_ANOMALY":95.8404,"EPHEMERIS_TYPE":0,"CLASSIFICATION_TYPE":"U","NORAD_CAT_ID":33915,"ELEMENT_SET_NO":999,"REV_AT_EPOCH":88903,"BSTAR":0.00040138,"MEAN_MOTION_DOT":1.199e-5,"MEAN_MOTION_DDOT":0},{"OBJECT_NAME":"COSMOS 2251 DEB","OBJECT_ID":"1993-036DV","EPOCH":"2026-03-02T17:03:59.842656","MEAN_MOTION":13.68691371,"ECCENTRICITY":0.0323819,"INCLINATION":74.0489,"RA_OF_ASC_NODE":269.1898,"ARG_OF_PERICENTER":63.3232,"MEAN_ANOMALY":10.1903,"EPHEMERIS_TYPE":0,"CLASSIFICATION_TYPE":"U","NORAD_CAT_ID":33916,"ELEMENT_SET_NO":999,"REV_AT_EPOCH":84985,"BSTAR":0.00042057,"MEAN_MOTION_DOT":5.01e-6,"MEAN_MOTION_DDOT":0},{"OBJECT_NAME":"COSMOS 2251 DEB","OBJECT_ID":"1993-036DW","EPOCH":"2026-03-02T18:40:59.392416","MEAN_MOTION":13.6963929,"ECCENTRICITY":0.0329298,"INCLINATION":74.11,"RA_OF_ASC_NODE":351.1345,"ARG_OF_PERICENTER":73.4084,"MEAN_ANOMALY":290.2921,"EPHEMERIS_TYPE":0,"CLASSIFICATION_TYPE":"U","NORAD_CAT_ID":33917,"ELEMENT_SET_NO":999,"REV_AT_EPOCH":84829,"BSTAR":0.0016128,"MEAN_MOTION_DOT":2.042e-5,"MEAN_MOTION_DDOT":0},{"OBJECT_NAME":"COSMOS 2251 DEB","OBJECT_ID":"1993-036DZ","EPOCH":"2026-03-02T15:40:46.167168","MEAN_MOTION":14.59787341,"ECCENTRICITY":0.0031879,"INCLINATION":74.0613,"RA_OF_ASC_NODE":146.4036,"ARG_OF_PERICENTER":137.4144,"MEAN_ANOMALY":222.9503,"EPHEMERIS_TYPE":0,"CLASSIFICATION_TYPE":"U","NORAD_CAT_ID":33920,"ELEMENT_SET_NO":999,"REV_AT_EPOCH":89280,"BSTAR":0.0015694,"MEAN_MOTION_DOT":7.528e-5,"MEAN_MOTION_DDOT":0},{"OBJECT_NAME":"COSMOS 2251 DEB","OBJECT_ID":"1993-036EB","EPOCH":"2026-03-02T06:26:18.420000","MEAN_MOTION":14.49828711,"ECCENTRICITY":0.00207929,"INCLINATION":74.0493,"RA_OF_ASC_NODE":358.6041,"ARG_OF_PERICENTER":90.3831,"MEAN_ANOMALY":38.8867,"EPHEMERIS_TYPE":0,"CLASSIFICATION_TYPE":"U","NORAD_CAT_ID":33922,"ELEMENT_SET_NO":999,"REV_AT_EPOCH":89730,"BSTAR":0.00051882884,"MEAN_MOTION_DOT":1.981e-5,"MEAN_MOTION_DDOT":0},{"OBJECT_NAME":"COSMOS 2251 DEB","OBJECT_ID":"1993-036ED","EPOCH":"2026-03-02T14:59:07.403136","MEAN_MOTION":13.50369932,"ECCENTRICITY":0.040189,"INCLINATION":73.9133,"RA_OF_ASC_NODE":141.7891,"ARG_OF_PERICENTER":162.9731,"MEAN_ANOMALY":198.5329,"EPHEMERIS_TYPE":0,"CLASSIFICATION_TYPE":"U","NORAD_CAT_ID":33924,"ELEMENT_SET_NO":999,"REV_AT_EPOCH":83817,"BSTAR":0.00074861,"MEAN_MOTION_DOT":7.72e-6,"MEAN_MOTION_DDOT":0},{"OBJECT_NAME":"COSMOS 2251 DEB","OBJECT_ID":"1993-036EH","EPOCH":"2026-03-02T14:23:24.023904","MEAN_MOTION":14.47601449,"ECCENTRICITY":0.0060862,"INCLINATION":73.9227,"RA_OF_ASC_NODE":262.1809,"ARG_OF_PERICENTER":180.9638,"MEAN_ANOMALY":179.1414,"EPHEMERIS_TYPE":0,"CLASSIFICATION_TYPE":"U","NORAD_CAT_ID":33928,"ELEMENT_SET_NO":999,"REV_AT_EPOCH":89800,"BSTAR":0.00029624,"MEAN_MOTION_DOT":1.087e-5,"MEAN_MOTION_DDOT":0}]
